[{"OBJECT_NAME":"DAMPE","OBJECT_ID":"2015-078A","EPOCH":"2026-03-09T23:55:00.527232","MEAN_MOTION":15.30502084,"ECCENTRICITY":0.00138005,"INCLINATION":97.4588,"RA_OF_ASC_NODE":73.9866,"ARG_OF_PERICENTER":70.6942,"MEAN_ANOMALY":289.579,"EPHEMERIS_TYPE":0,"CLASSIFICATION_TYPE":"U","NORAD_CAT_ID":41173,"ELEMENT_SET_NO":999,"REV_AT_EPOCH":56937,"BSTAR":9.1158173e-5,"MEAN_MOTION_DOT":2.617e-5,"MEAN_MOTION_DDOT":0},{"OBJECT_NAME":"STARLINK-31722","OBJECT_ID":"2024-074R","EPOCH":"2026-03-09T03:08:23.709408","MEAN_MOTION":15.27564383,"ECCENTRICITY":8.858e-5,"INCLINATION":43.0032,"RA_OF_ASC_NODE":346.2692,"ARG_OF_PERICENTER":267.8976,"MEAN_ANOMALY":92.1774,"EPHEMERIS_TYPE":0,"CLASSIFICATION_TYPE":"U","NORAD_CAT_ID":59549,"ELEMENT_SET_NO":999,"REV_AT_EPOCH":10593,"BSTAR":-0.00010874237,"MEAN_MOTION_DOT":-3.251e-5,"MEAN_MOTION_DDOT":0}]
